[{"OBJECT_NAME":"AMC-3","OBJECT_ID":"1997-050A","EPOCH":"2026-03-02T12:03:35.332128","MEAN_MOTION":1.00272202,"ECCENTRICITY":0.0003424,"INCLINATION":7.885,"RA_OF_ASC_NODE":65.2951,"ARG_OF_PERICENTER":282.5371,"MEAN_ANOMALY":281.3361,"EPHEMERIS_TYPE":0,"CLASSIFICATION_TYPE":"U","NORAD_CAT_ID":24936,"ELEMENT_SET_NO":999,"REV_AT_EPOCH":5136,"BSTAR":0,"MEAN_MOTION_DOT":-2.75e-6,"MEAN_MOTION_DDOT":0},{"OBJECT_NAME":"NSS-11","OBJECT_ID":"2000-059A","EPOCH":"2026-03-02T19:36:38.827584","MEAN_MOTION":1.00271445,"ECCENTRICITY":0.000316,"INCLINATION":1.8519,"RA_OF_ASC_NODE":82.6926,"ARG_OF_PERICENTER":261.3775,"MEAN_ANOMALY":286.6692,"EPHEMERIS_TYPE":0,"CLASSIFICATION_TYPE":"U","NORAD_CAT_ID":26554,"ELEMENT_SET_NO":999,"REV_AT_EPOCH":4022,"BSTAR":0,"MEAN_MOTION_DOT":9.0e-8,"MEAN_MOTION_DDOT":0},{"OBJECT_NAME":"AMC-6","OBJECT_ID":"2000-067A","EPOCH":"2026-03-02T16:53:48.001920","MEAN_MOTION":1.00271099,"ECCENTRICITY":0.000315,"INCLINATION":0.0515,"RA_OF_ASC_NODE":310.8126,"ARG_OF_PERICENTER":26.2038,"MEAN_ANOMALY":301.8393,"EPHEMERIS_TYPE":0,"CLASSIFICATION_TYPE":"U","NORAD_CAT_ID":26580,"ELEMENT_SET_NO":999,"REV_AT_EPOCH":9282,"BSTAR":0,"MEAN_MOTION_DOT":7.2e-7,"MEAN_MOTION_DDOT":0},{"OBJECT_NAME":"AMC-11","OBJECT_ID":"2004-017A","EPOCH":"2026-03-02T13:35:11.549760","MEAN_MOTION":1.00271773,"ECCENTRICITY":0.000321,"INCLINATION":0.0365,"RA_OF_ASC_NODE":78.716,"ARG_OF_PERICENTER":265.0212,"MEAN_ANOMALY":269.2867,"EPHEMERIS_TYPE":0,"CLASSIFICATION_TYPE":"U","NORAD_CAT_ID":28252,"ELEMENT_SET_NO":999,"REV_AT_EPOCH":7979,"BSTAR":0,"MEAN_MOTION_DOT":-6.6e-7,"MEAN_MOTION_DDOT":0},{"OBJECT_NAME":"AMC-15","OBJECT_ID":"2004-041A","EPOCH":"2026-03-02T15:19:39.036864","MEAN_MOTION":1.00272616,"ECCENTRICITY":0.0002421,"INCLINATION":0.0585,"RA_OF_ASC_NODE":292.9265,"ARG_OF_PERICENTER":54.0788,"MEAN_ANOMALY":298.2652,"EPHEMERIS_TYPE":0,"CLASSIFICATION_TYPE":"U","NORAD_CAT_ID":28446,"ELEMENT_SET_NO":999,"REV_AT_EPOCH":7823,"BSTAR":0,"MEAN_MOTION_DOT":-1.06e-6,"MEAN_MOTION_DDOT":0},{"OBJECT_NAME":"NSS-10","OBJECT_ID":"2005-003A","EPOCH":"2026-03-02T08:48:05.708736","MEAN_MOTION":1.00271646,"ECCENTRICITY":0.00032436,"INCLINATION":6.1825,"RA_OF_ASC_NODE":71.7454,"ARG_OF_PERICENTER":271.7099,"MEAN_ANOMALY":271.2564,"EPHEMERIS_TYPE":0,"CLASSIFICATION_TYPE":"U","NORAD_CAT_ID":28526,"ELEMENT_SET_NO":999,"REV_AT_EPOCH":5208,"BSTAR":0,"MEAN_MOTION_DOT":-2.66e-6,"MEAN_MOTION_DDOT":0},{"OBJECT_NAME":"ASTRA 1KR","OBJECT_ID":"2006-012A","EPOCH":"2026-03-02T18:05:52.988928","MEAN_MOTION":1.00271357,"ECCENTRICITY":0.0003482,"INCLINATION":0.1995,"RA_OF_ASC_NODE":81.7833,"ARG_OF_PERICENTER":241.8991,"MEAN_ANOMALY":127.3039,"EPHEMERIS_TYPE":0,"CLASSIFICATION_TYPE":"U","NORAD_CAT_ID":29055,"ELEMENT_SET_NO":999,"REV_AT_EPOCH":4463,"BSTAR":0,"MEAN_MOTION_DOT":1.02e-6,"MEAN_MOTION_DDOT":0},{"OBJECT_NAME":"ASTRA 1L","OBJECT_ID":"2007-016A","EPOCH":"2026-03-02T17:25:22.474848","MEAN_MOTION":1.00271361,"ECCENTRICITY":0.0003299,"INCLINATION":1.0465,"RA_OF_ASC_NODE":82.4338,"ARG_OF_PERICENTER":271.2791,"MEAN_ANOMALY":43.6725,"EPHEMERIS_TYPE":0,"CLASSIFICATION_TYPE":"U","NORAD_CAT_ID":31306,"ELEMENT_SET_NO":999,"REV_AT_EPOCH":4391,"BSTAR":0,"MEAN_MOTION_DOT":-2.0e-6,"MEAN_MOTION_DDOT":0},{"OBJECT_NAME":"ASTRA 4A","OBJECT_ID":"2007-057A","EPOCH":"2026-03-02T17:33:36.684576","MEAN_MOTION":1.00273084,"ECCENTRICITY":0.0002476,"INCLINATION":0.0564,"RA_OF_ASC_NODE":290.3397,"ARG_OF_PERICENTER":52.6936,"MEAN_ANOMALY":85.6714,"EPHEMERIS_TYPE":0,"CLASSIFICATION_TYPE":"U","NORAD_CAT_ID":32299,"ELEMENT_SET_NO":999,"REV_AT_EPOCH":5057,"BSTAR":0,"MEAN_MOTION_DOT":1.6e-7,"MEAN_MOTION_DDOT":0},{"OBJECT_NAME":"ASTRA 1M","OBJECT_ID":"2008-057A","EPOCH":"2026-03-02T17:59:06.137376","MEAN_MOTION":1.00273039,"ECCENTRICITY":5.92e-5,"INCLINATION":0.0313,"RA_OF_ASC_NODE":58.2968,"ARG_OF_PERICENTER":11.983,"MEAN_ANOMALY":19.1943,"EPHEMERIS_TYPE":0,"CLASSIFICATION_TYPE":"U","NORAD_CAT_ID":33436,"ELEMENT_SET_NO":999,"REV_AT_EPOCH":4466,"BSTAR":0,"MEAN_MOTION_DOT":1.03e-6,"MEAN_MOTION_DDOT":0},{"OBJECT_NAME":"NSS-9","OBJECT_ID":"2009-008A","EPOCH":"2026-03-02T19:36:38.827584","MEAN_MOTION":1.00272341,"ECCENTRICITY":0.0002196,"INCLINATION":0.9866,"RA_OF_ASC_NODE":83.7207,"ARG_OF_PERICENTER":249.5589,"MEAN_ANOMALY":304.5221,"EPHEMERIS_TYPE":0,"CLASSIFICATION_TYPE":"U","NORAD_CAT_ID":33749,"ELEMENT_SET_NO":999,"REV_AT_EPOCH":6245,"BSTAR":0,"MEAN_MOTION_DOT":5.5e-7,"MEAN_MOTION_DDOT":0},{"OBJECT_NAME":"SES-7 (PROTOSTAR 2)","OBJECT_ID":"2009-027A","EPOCH":"2026-03-02T15:09:16.572384","MEAN_MOTION":1.00269194,"ECCENTRICITY":0.0001582,"INCLINATION":0.0232,"RA_OF_ASC_NODE":126.5661,"ARG_OF_PERICENTER":178.8029,"MEAN_ANOMALY":190.6393,"EPHEMERIS_TYPE":0,"CLASSIFICATION_TYPE":"U","NORAD_CAT_ID":34941,"ELEMENT_SET_NO":999,"REV_AT_EPOCH":6156,"BSTAR":0,"MEAN_MOTION_DOT":0,"MEAN_MOTION_DDOT":0},{"OBJECT_NAME":"NSS-12","OBJECT_ID":"2009-058A","EPOCH":"2026-03-02T19:57:00.216000","MEAN_MOTION":1.00272006,"ECCENTRICITY":0.0005029,"INCLINATION":0.0401,"RA_OF_ASC_NODE":296.484,"ARG_OF_PERICENTER":32.0482,"MEAN_ANOMALY":188.2999,"EPHEMERIS_TYPE":0,"CLASSIFICATION_TYPE":"U","NORAD_CAT_ID":36032,"ELEMENT_SET_NO":999,"REV_AT_EPOCH":5985,"BSTAR":0,"MEAN_MOTION_DOT":5.5e-7,"MEAN_MOTION_DDOT":0},{"OBJECT_NAME":"SES-1","OBJECT_ID":"2010-016A","EPOCH":"2026-03-02T15:20:38.940576","MEAN_MOTION":1.00272352,"ECCENTRICITY":0.0002584,"INCLINATION":0.0562,"RA_OF_ASC_NODE":290.0775,"ARG_OF_PERICENTER":40.5922,"MEAN_ANOMALY":318.8928,"EPHEMERIS_TYPE":0,"CLASSIFICATION_TYPE":"U","NORAD_CAT_ID":36516,"ELEMENT_SET_NO":999,"REV_AT_EPOCH":5796,"BSTAR":0,"MEAN_MOTION_DOT":-1.31e-6,"MEAN_MOTION_DDOT":0},{"OBJECT_NAME":"ASTRA 3B","OBJECT_ID":"2010-021A","EPOCH":"2026-03-02T17:38:58.671456","MEAN_MOTION":1.00270929,"ECCENTRICITY":0.0003028,"INCLINATION":1.193,"RA_OF_ASC_NODE":84.9601,"ARG_OF_PERICENTER":277.5438,"MEAN_ANOMALY":86.2382,"EPHEMERIS_TYPE":0,"CLASSIFICATION_TYPE":"U","NORAD_CAT_ID":36581,"ELEMENT_SET_NO":999,"REV_AT_EPOCH":5780,"BSTAR":0,"MEAN_MOTION_DOT":1.21e-6,"MEAN_MOTION_DDOT":0},{"OBJECT_NAME":"SES-3","OBJECT_ID":"2011-035A","EPOCH":"2026-03-02T15:20:08.988288","MEAN_MOTION":1.00272104,"ECCENTRICITY":0.0003571,"INCLINATION":1.0513,"RA_OF_ASC_NODE":84.3271,"ARG_OF_PERICENTER":260.4654,"MEAN_ANOMALY":302.6416,"EPHEMERIS_TYPE":0,"CLASSIFICATION_TYPE":"U","NORAD_CAT_ID":37748,"ELEMENT_SET_NO":999,"REV_AT_EPOCH":5352,"BSTAR":0,"MEAN_MOTION_DOT":-1.18e-6,"MEAN_MOTION_DDOT":0},{"OBJECT_NAME":"ASTRA 1N","OBJECT_ID":"2011-041A","EPOCH":"2026-03-02T17:59:06.144288","MEAN_MOTION":1.00273017,"ECCENTRICITY":0.0004062,"INCLINATION":0.0673,"RA_OF_ASC_NODE":16.6824,"ARG_OF_PERICENTER":0.7096,"MEAN_ANOMALY":72.0856,"EPHEMERIS_TYPE":0,"CLASSIFICATION_TYPE":"U","NORAD_CAT_ID":37775,"ELEMENT_SET_NO":999,"REV_AT_EPOCH":4346,"BSTAR":0,"MEAN_MOTION_DOT":1.03e-6,"MEAN_MOTION_DDOT":0}]
