AMC-3                   
1 24936U 97050A   26061.50249227 -.00000275  00000+0  00000+0 0  9994
2 24936   7.8850  65.2951 0003424 282.5371 281.3361  1.00272202 51368
NSS-11                  
1 26554U 00059A   26061.81711606  .00000009  00000+0  00000+0 0  9998
2 26554   1.8519  82.6926 0003160 261.3775 286.6692  1.00271445 40223
AMC-6                   
1 26580U 00067A   26061.70402780  .00000072  00000+0  00000+0 0  9994
2 26580   0.0515 310.8126 0003150  26.2038 301.8393  1.00271099 92822
AMC-11                  
1 28252U 04017A   26061.56610590 -.00000066  00000+0  00000+0 0  9999
2 28252   0.0365  78.7160 0003210 265.0212 269.2867  1.00271773 79798
AMC-15                  
1 28446U 04041A   26061.63864626 -.00000106  00000+0  00000+0 0  9995
2 28446   0.0585 292.9265 0002421  54.0788 298.2652  1.00272616 78239
NSS-10                  
1 28526U 05003A   26061.36673274 -.00000266  00000+0  00000+0 0  9997
2 28526   6.1825  71.7454 0003243 271.7099 271.2564  1.00271646 52081
ASTRA 1KR               
1 29055U 06012A   26061.75408552  .00000102  00000+0  00000+0 0  9992
2 29055   0.1995  81.7833 0003482 241.8991 127.3039  1.00271357 44636
ASTRA 1L                
1 31306U 07016A   26061.72595457 -.00000200  00000+0  00000+0 0  9997
2 31306   1.0465  82.4338 0003299 271.2791  43.6725  1.00271361 43916
ASTRA 4A                
1 32299U 07057A   26061.73167459  .00000016  00000+0  00000+0 0  9996
2 32299   0.0564 290.3397 0002476  52.6936  85.6714  1.00273084 50578
ASTRA 1M                
1 33436U 08057A   26061.74937659  .00000103  00000+0  00000+0 0  9996
2 33436   0.0313  58.2968 0000592  11.9830  19.1943  1.00273039 44666
NSS-9                   
1 33749U 09008A   26061.81711606  .00000055  00000+0  00000+0 0  9996
2 33749   0.9866  83.7207 0002196 249.5589 304.5221  1.00272341 62458
SES-7 (PROTOSTAR 2)     
1 34941U 09027A   26061.63144181  .00000000  00000+0  00000+0 0  9990
2 34941   0.0232 126.5661 0001582 178.8029 190.6393  1.00269194 61569
NSS-12                  
1 36032U 09058A   26061.83125250  .00000055  00000+0  00000+0 0  9995
2 36032   0.0401 296.4840 0005029  32.0482 188.2999  1.00272006 59850
SES-1                   
1 36516U 10016A   26061.63933959 -.00000131  00000+0  00000+0 0  9995
2 36516   0.0562 290.0775 0002584  40.5922 318.8928  1.00272352 57965
ASTRA 3B                
1 36581U 10021A   26061.73540129  .00000121  00000+0  00000+0 0  9995
2 36581   1.1930  84.9601 0003028 277.5438  86.2382  1.00270929 57805
SES-3                   
1 37748U 11035A   26061.63899292 -.00000118  00000+0  00000+0 0  9991
2 37748   1.0513  84.3271 0003571 260.4654 302.6416  1.00272104 53523
ASTRA 1N                
1 37775U 11041A   26061.74937667  .00000103  00000+0  00000+0 0  9992
2 37775   0.0673  16.6824 0004062   0.7096  72.0856  1.00273017 43464
